{
  "norad_id": 56550,
  "name": "STARLINK-6255",
  "history": [
    {
      "epoch": "2026-03-28T19:13:55.164288Z",
      "apogee_km": 486.87978813096925,
      "perigee_km": 484.2007576178212,
      "latitude_deg": -5.830373604311586e-06,
      "longitude_deg": 1.0723769280930469,
      "height_km": 484.9131964821989,
      "semi_major_axis_km": 6863.6772728743945,
      "eccentricity": 0.00019516,
      "inclination_deg": 43.0038,
      "raan_deg": 115.7688,
      "arg_perigee_deg": 287.5856,
      "mean_anomaly_deg": 72.4782,
      "mean_motion_rev_day": 15.26748421
    },
    {
      "epoch": "2026-03-29T03:04:57.906336Z",
      "apogee_km": 486.7065171986833,
      "perigee_km": 484.3852196525813,
      "latitude_deg": 3.102195825459248e-05,
      "longitude_deg": -118.85712831443084,
      "height_km": 484.9926679600496,
      "semi_major_axis_km": 6863.6828684256325,
      "eccentricity": 0.0001691,
      "inclination_deg": 43.0043,
      "raan_deg": 113.9231,
      "arg_perigee_deg": 286.5538,
      "mean_anomaly_deg": 73.5128,
      "mean_motion_rev_day": 15.26746554
    }
  ]
}